{
    "links": {
        "self": "http://www.neowsapp.com/rest/v1/neo/3843578?api_key=iIulBulltgU6a56xZRHN4H3l9WmuAYTsLGpBGhQ2"
    },
    "id": "3843578",
    "neo_reference_id": "3843578",
    "name": "(2019 QS)",
    "designation": "2019 QS",
    "nasa_jpl_url": "http://ssd.jpl.nasa.gov/sbdb.cgi?sstr=3843578",
    "absolute_magnitude_h": 24.8,
    "estimated_diameter": {
        "kilometers": {
            "estimated_diameter_min": 0.0291443905,
            "estimated_diameter_max": 0.0651688382
        },
        "meters": {
            "estimated_diameter_min": 29.1443904535,
            "estimated_diameter_max": 65.1688382168
        },
        "miles": {
            "estimated_diameter_min": 0.018109479,
            "estimated_diameter_max": 0.0404940262
        },
        "feet": {
            "estimated_diameter_min": 95.6180819754,
            "estimated_diameter_max": 213.8085311752
        }
    },
    "is_potentially_hazardous_asteroid": false,
    "close_approach_data": [
        {
            "close_approach_date": "2019-08-28",
            "close_approach_date_full": "2019-Aug-28 06:31",
            "epoch_date_close_approach": 1566973860000,
            "relative_velocity": {
                "kilometers_per_second": "22.535991523",
                "kilometers_per_hour": "81129.5694828529",
                "miles_per_hour": "50410.7594378316"
            },
            "miss_distance": {
                "astronomical": "0.014104859",
                "lunar": "5.486790151",
                "kilometers": "2110056.86305033",
                "miles": "1311128.536861354"
            },
            "orbiting_body": "Earth"
        }
    ],
    "orbital_data": {
        "orbit_id": "6",
        "orbit_determination_date": "2019-09-08 05:53:53",
        "first_observation_date": "2019-08-21",
        "last_observation_date": "2019-08-28",
        "data_arc_in_days": 7,
        "observations_used": 71,
        "orbit_uncertainty": "8",
        "minimum_orbit_intersection": ".00999103",
        "jupiter_tisserand_invariant": "3.003",
        "epoch_osculation": "2458722.5",
        "eccentricity": ".7705743281962134",
        "semi_major_axis": "2.440685398009876",
        "inclination": "4.094482566317928",
        "ascending_node_longitude": "163.3793617251621",
        "orbital_period": "1392.72743646993",
        "perihelion_distance": ".5599558871001081",
        "perihelion_argument": "261.8849073436996",
        "aphelion_distance": "4.321414908919644",
        "perihelion_time": "2458769.419275751753",
        "mean_anomaly": "347.8720424195537",
        "mean_motion": ".2584856092965845",
        "equinox": "J2000",
        "orbit_class": {
            "orbit_class_type": "APO",
            "orbit_class_description": "Near-Earth asteroid orbits which cross the Earth’s orbit similar to that of 1862 Apollo",
            "orbit_class_range": "a (semi-major axis) > 1.0 AU; q (perihelion) < 1.017 AU"
        }
    },
    "is_sentry_object": false
}